QIANFAN-9               
1 60387U 24140J   25242.10515244  .00000114  00000+0  15747-3 0  9994
2 60387  88.9822 310.1644 0018150 135.9988 224.2611 13.50962807 53209
QIANFAN-10              
1 60388U 24140K   25242.10923922  .00000112  00000+0  15407-3 0  9992
2 60388  88.9830 309.5017 0016939 115.7373 244.5529 13.50964732 53338
QIANFAN-11              
1 60389U 24140L   25242.14622417  .00000108  00000+0  14815-3 0  9999
2 60389  88.9757 310.1625 0016177 135.0835 225.1629 13.50965077 52992
QIANFAN-12              
1 60390U 24140M   25242.16674065  .00000115  00000+0  15875-3 0  9994
2 60390  88.9801 310.1581 0014832 141.8768 218.3435 13.50965022 53126
QIANFAN-13              
1 60391U 24140N   25242.13795695  .00000114  00000+0  15777-3 0  9995
2 60391  88.9813 310.2480 0014584 144.2326 215.9805 13.50965008 53140
QIANFAN-14              
1 60392U 24140P   25242.16258502  .00000108  00000+0  14766-3 0  9990
2 60392  88.9792 310.1655 0018259 145.3826 214.8517 13.50966096 53157
QIANFAN-15              
1 60393U 24140Q   25242.09687039  .00000101  00000+0  13687-3 0  9998
2 60393  88.9815 310.1040 0014357 132.0676 228.1699 13.50969464 53132
QIANFAN-16              
1 60394U 24140R   25242.15858779  .00000114  00000+0  15823-3 0  9995
2 60394  88.9818 310.2145 0016079 148.2466 211.9658 13.50965220 53054
